{"fetched_at":"2026-03-29T16:36:15Z","count":15609,"tles":[{"name":"STARLINK-11451 [DTC]","line1":"1 62561U 25006H   26087.88466268  .00300998  00000+0  22423-2 0  9997","line2":"2 62561  43.0004  23.9800 0003818 280.3977  79.6460 15.71080593 69625","category":"Starlink"}]}