{
  "norad_id": 62561,
  "name": "STARLINK-11451 [DTC]",
  "history": [
    {
      "epoch": "2026-03-28T21:13:54.855552Z",
      "apogee_km": 358.37891354709427,
      "perigee_km": 353.23606546157043,
      "latitude_deg": -1.4420739232877684e-05,
      "longitude_deg": -120.79727942405626,
      "height_km": 355.1175231490024,
      "semi_major_axis_km": 6733.944489504332,
      "eccentricity": 0.00038186,
      "inclination_deg": 43.0004,
      "raan_deg": 23.98,
      "arg_perigee_deg": 280.3977,
      "mean_anomaly_deg": 79.646,
      "mean_motion_rev_day": 15.71080593
    }
  ]
}